NORAD_CAT_ID,OBJECT_NAME,OBJECT_TYPE,EPOCH,MEAN_MOTION,ECCENTRICITY,INCLINATION,RA_OF_ASC_NODE,ARG_OF_PERICENTER,MEAN_ANOMALY,BSTAR,MEAN_MOTION_DOT,MEAN_MOTION_DDOT,TLE_LINE0,TLE_LINE1,TLE_LINE2,SEMIMAJOR_AXIS,PERIOD,APOGEE,PERIGEE,DECAYED
49744.0,STARLINK-3231,PAYLOAD,2023-01-15 20:04:55,15.08846525,0.0001994,53.2154,266.519,100.3069,259.8148,0.00035246,5.327e-05,0.0,0 STARLINK-3231,1 49744U 21115W   23015.83675563  .00005327  00000-0  35246-3 0  9992,2 49744  53.2154 266.5190 0001994 100.3069 259.8148 15.08846525 63203,6917.86,95.437,541.105,538.346,0.0
49744.0,STARLINK-3231,PAYLOAD,2023-01-15 21:40:18,15.08850479,0.0001748,53.2156,266.2218,97.6745,262.4445,0.00070702,0.00010985,0.0,0 STARLINK-3231,1 49744U 21115W   23015.90299543  .00010985  00000-0  70702-3 0  9992,2 49744  53.2156 266.2218 0001748  97.6745 262.4445 15.08850479 62100,6917.848000000001,95.437,540.923,538.504,0.0
49744.0,STARLINK-3231,PAYLOAD,2023-01-15 23:15:41,15.08860977,0.0001139999999999,53.2156,265.9244,90.8955,269.2168,0.0010141,0.00015897,0.0,0 STARLINK-3231,1 49744U 21115W   23015.96923424  .00015897  00000-0  10141-2 0  9997,2 49744  53.2156 265.9244 0001140  90.8955 269.2168 15.08860977 63224,6917.816,95.436,540.47,538.893,0.0
49744.0,STARLINK-3231,PAYLOAD,2023-01-16 16:44:57,15.08833233,0.0001355,53.2148,262.6513,87.8313,272.2834,0.00068105,0.00010566,0.0,0 STARLINK-3231,1 49744U 21115W   23016.69788399  .00010566  00000-0  68105-3 0  9990,2 49744  53.2148 262.6513 0001355  87.8313 272.2834 15.08833233 63331,6917.901,95.438,540.703,538.8290000000001,0.0
49744.0,STARLINK-3231,PAYLOAD,2023-01-17 02:17:16,15.0882487,0.0001239,53.2163,260.8674,66.0662,294.046,0.00042922,6.547e-05,0.0,0 STARLINK-3231,1 49744U 21115W   23017.09533115  .00006547  00000-0  42922-3 0  9992,2 49744  53.2163 260.8674 0001239  66.0662 294.0460 15.08824870 63393,6917.927,95.439,540.649,538.935,0.0
49744.0,STARLINK-3231,PAYLOAD,2023-01-17 08:38:49,15.0882607,0.0001217,53.2158,259.6787,68.1389,291.9732,0.00062041,9.596e-05,0.0,0 STARLINK-3231,1 49744U 21115W   23017.36029366  .00009596  00000-0  62041-3 0  9991,2 49744  53.2158 259.6787 0001217  68.1389 291.9732 15.08826070 62327,6917.923000000001,95.438,540.63,538.946,0.0
49744.0,STARLINK-3231,PAYLOAD,2023-01-17 21:21:54,15.08842322,0.000122,53.2157,257.2999,66.2083,293.9037,0.00081568,0.00012718,0.0,0 STARLINK-3231,1 49744U 21115W   23017.89021457  .00012718  00000-0  81568-3 0  9997,2 49744  53.2157 257.2999 0001220  66.2083 293.9037 15.08842322 62406,6917.8730000000005,95.437,540.582,538.894,0.0
49744.0,STARLINK-3231,PAYLOAD,2023-01-18 08:29:36,15.08848758,0.0001395,53.2168,255.2183,70.0971,290.0172,0.00090231,0.00014105,0.0,0 STARLINK-3231,1 49744U 21115W   23018.35389350  .00014105  00000-0  90231-3 0  9997,2 49744  53.2168 255.2183 0001395  70.0971 290.0172 15.08848758 63580,6917.854,95.437,540.684,538.754,0.0
49744.0,STARLINK-3231,PAYLOAD,2023-01-18 21:12:41,15.08847896,0.0001345,53.2157,252.8391,66.3536,293.7598,0.00034275,5.172e-05,0.0,0 STARLINK-3231,1 49744U 21115W   23018.88381211  .00005172  00000-0  34275-3 0  9993,2 49744  53.2157 252.8391 0001345  66.3536 293.7598 15.08847896 62552,6917.856,95.437,540.6519999999999,538.7909999999999,0.0
49744.0,STARLINK-3231,PAYLOAD,2023-01-19 00:23:27,15.08857342,0.0001408,53.2163,252.2464,85.3137,274.8016,0.00056431,8.709e-05,0.0,0 STARLINK-3231,1 49744U 21115W   23019.01628892  .00008709  00000-0  56431-3 0  9995,2 49744  53.2163 252.2464 0001408  85.3137 274.8016 15.08857342 63689,6917.826999999999,95.436,540.6659999999999,538.7180000000001,0.0
49744.0,STARLINK-3231,PAYLOAD,2023-01-19 08:20:23,15.08843125,0.0001176,53.2156,250.7576,80.4192,279.6933,6.663e-05,7.73e-06,0.0,0 STARLINK-3231,1 49744U 21115W   23019.34749076  .00000773  00000-0  66630-4 0  9995,2 49744  53.2156 250.7576 0001176  80.4192 279.6933 15.08843125 63738,6917.871,95.437,540.549,538.922,0.0
49744.0,STARLINK-3231,PAYLOAD,2023-01-19 14:41:55,15.08842673,0.0001530999999999,53.2145,249.5705,91.4557,268.661,0.00016964,2.413e-05,0.0,0 STARLINK-3231,1 49744U 21115W   23019.61245293  .00002413  00000-0  16964-3 0  9994,2 49744  53.2145 249.5705 0001531  91.4557 268.6610 15.08842673 62666,6917.871999999999,95.437,540.7959999999999,538.678,0.0
49744.0,STARLINK-3231,PAYLOAD,2023-01-19 16:17:19,15.08832641,0.000135,53.2165,249.2738,91.6708,268.4438,-0.00013486,-2.433e-05,0.0,0 STARLINK-3231,1 49744U 21115W   23019.67869399 -.00002433  00000-0 -13486-3 0  9999,2 49744  53.2165 249.2738 0001350  91.6708 268.4438 15.08832641 63784,6917.903,95.438,540.702,538.8340000000001,0.0
49744.0,STARLINK-3231,PAYLOAD,2023-01-20 01:49:37,15.08841719,0.0001543,53.2146,247.4878,109.2627,250.8532,0.00012377,1.682e-05,0.0,0 STARLINK-3231,1 49744U 21115W   23020.07613108  .00001682  00000-0  12377-3 0  9991,2 49744  53.2146 247.4878 0001543 109.2627 250.8532 15.08841719 63841,6917.875,95.437,540.808,538.673,0.0
49744.0,STARLINK-3231,PAYLOAD,2023-01-20 08:11:10,15.08838845,0.0001049,53.2134,246.297,84.4195,275.6917,0.00011827,1.595e-05,0.0,0 STARLINK-3231,1 49744U 21115W   23020.34109473  .00001595  00000-0  11827-3 0  9998,2 49744  53.2134 246.2970 0001049  84.4195 275.6917 15.08838845 63885,6917.884,95.438,540.475,539.023,0.0
49744.0,STARLINK-3231,PAYLOAD,2023-01-21 14:23:30,15.08847515,0.0001264,53.2148,240.6467,90.7113,269.4024,0.00037044,5.614e-05,0.0,0 STARLINK-3231,1 49744U 21115W   23021.59965428  .00005614  00000-0  37044-3 0  9991,2 49744  53.2148 240.6467 0001264  90.7113 269.4024 15.08847515 64074,6917.857,95.437,540.597,538.8480000000001,0.0
49744.0,STARLINK-3231,PAYLOAD,2023-01-22 14:14:17,15.08841587,0.0001527,53.2142,236.1862,89.023,271.0937,6.275600000000001e-05,7.11e-06,0.0,0 STARLINK-3231,1 49744U 21115W   23022.59325372  .00000711  00000-0  62756-4 0  9992,2 49744  53.2142 236.1862 0001527  89.0230 271.0937 15.08841587 64222,6917.876,95.437,540.797,538.684,0.0
49744.0,STARLINK-3231,PAYLOAD,2023-01-23 23:37:22,15.08855303,0.0001164,53.2144,229.942,83.2231,276.8894,-8.2841e-06,-4.2e-06,0.0,0 STARLINK-3231,1 49744U 21115W   23023.98428649 -.00000420  00000-0 -82841-5 0  9994,2 49744  53.2144 229.9420 0001164  83.2231 276.8894 15.08855303 64437,6917.834,95.437,540.504,538.893,0.0
49744.0,STARLINK-3231,PAYLOAD,2023-01-24 20:17:22,15.08849083,0.0001132,53.2145,226.0754,94.2655,265.8466,-0.00012714,-2.311e-05,0.0,0 STARLINK-3231,1 49744U 21115W   23024.84540269 -.00002311  00000-0 -12714-3 0  9994,2 49744  53.2145 226.0754 0001132  94.2655 265.8466 15.08849083 64568,6917.853,95.437,540.501,538.935,0.0
49744.0,STARLINK-3231,PAYLOAD,2023-01-25 13:46:37,15.08834858,0.0001408,53.2143,222.8046,77.4342,282.6808,-0.00030223,-5.094e-05,0.0,0 STARLINK-3231,1 49744U 21115W   23025.57404696 -.00005094  00000-0 -30223-3 0  9994,2 49744  53.2143 222.8046 0001408  77.4342 282.6808 15.08834858 64679,6917.896,95.438,540.735,538.7869999999999,0.0
49744.0,STARLINK-3231,PAYLOAD,2023-01-25 20:08:10,15.08835493,0.0001389,53.2149,221.6157,77.9846,282.1302,-0.00011022,-2.041e-05,0.0,0 STARLINK-3231,1 49744U 21115W   23025.83901070 -.00002041  00000-0 -11022-3 0  9996,2 49744  53.2149 221.6157 0001389  77.9846 282.1302 15.08835493 63609,6917.894,95.438,540.72,538.798,0.0
49744.0,STARLINK-3231,PAYLOAD,2023-01-26 13:37:24,15.08843462,0.0001286999999999,53.2153,218.3442,69.9231,290.19,-0.00020933,-3.618e-05,0.0,0 STARLINK-3231,1 49744U 21115W   23026.56764761 -.00003618  00000-0 -20933-3 0  9993,2 49744  53.2153 218.3442 0001287  69.9231 290.1900 15.08843462 63710,6917.87,95.437,540.625,538.844,0.0
49744.0,STARLINK-3231,PAYLOAD,2023-01-27 05:31:16,15.08832613,0.0001438,53.2155,215.3706,77.9135,282.2019,0.00017985,2.575e-05,0.0,0 STARLINK-3231,1 49744U 21115W   23027.23005571  .00002575  00000-0  17985-3 0  9997,2 49744  53.2155 215.3706 0001438  77.9135 282.2019 15.08832613 64925,6917.903,95.438,540.763,538.773,0.0
49744.0,STARLINK-3231,PAYLOAD,2023-01-27 11:52:49,15.08832539,0.0001443999999999,53.2154,214.1811,78.0503,282.0651,0.00018189,2.607e-05,0.0,0 STARLINK-3231,1 49744U 21115W   23027.49501768  .00002607  00000-0  18189-3 0  9997,2 49744  53.2154 214.1811 0001444  78.0503 282.0651 15.08832539 63854,6917.903,95.438,540.7669999999999,538.769,0.0
49744.0,STARLINK-3231,PAYLOAD,2023-01-27 19:49:45,15.08836509,0.0001421,53.2153,212.6941,77.0947,283.0204,0.00017581,2.511e-05,0.0,0 STARLINK-3231,1 49744U 21115W   23027.82621730  .00002511  00000-0  17581-3 0  9995,2 49744  53.2153 212.6941 0001421  77.0947 283.0204 15.08836509 63908,6917.891,95.438,540.739,538.773,0.0
49744.0,STARLINK-3231,PAYLOAD,2023-01-28 11:43:36,15.08841051,0.0001371,53.2154,209.7207,78.5024,281.6122,0.00019165,2.764e-05,0.0,0 STARLINK-3231,1 49744U 21115W   23028.48861703  .00002764  00000-0  19165-3 0  9994,2 49744  53.2154 209.7207 0001371  78.5024 281.6122 15.08841051 65113,6917.877,95.437,540.691,538.794,0.0
49744.0,STARLINK-3231,PAYLOAD,2023-01-28 21:15:55,15.08846544,0.0001358,53.2155,207.9364,78.5241,281.5904,0.00020741,3.015e-05,0.0,0 STARLINK-3231,1 49744U 21115W   23028.88605408  .00003015  00000-0  20741-3 0  9998,2 49744  53.2155 207.9364 0001358  78.5241 281.5904 15.08846544 64066,6917.86,95.437,540.665,538.786,0.0
49744.0,STARLINK-3231,PAYLOAD,2023-01-29 21:06:43,15.08834347,0.0001334,53.2163,203.4758,81.6467,278.4676,3.7885e-05,3.15e-06,0.0,0 STARLINK-3231,1 49744U 21115W   23029.87966484  .00000315  00000-0  37885-4 0  9990,2 49744  53.2163 203.4758 0001334  81.6467 278.4676 15.08834347 65321,6917.898,95.438,540.686,538.84,0.0
49744.0,STARLINK-3231,PAYLOAD,2023-01-30 05:03:38,15.08838184,0.0001224,53.2164,201.9884,90.4711,269.6422,5.2088e-05,5.41e-06,0.0,0 STARLINK-3231,1 49744U 21115W   23030.21086170  .00000541  00000-0  52088-4 0  9998,2 49744  53.2164 201.9884 0001224  90.4711 269.6422 15.08838184 64269,6917.886,95.438,540.598,538.904,0.0
